,zip_code,latitude,longitude,RegionName,State,CountyName,location
176,90501,33.835665000000006,-118.30380500000001,Torrance,CA,Los Angeles,"33.835665000000006,-118.30380500000001,Torrance"
177,90502,33.833816,-118.293405,Torrance,CA,Los Angeles,"33.833816,-118.293405,Torrance"
178,90503,33.786594,-118.29866200000001,Torrance,CA,Los Angeles,"33.786594,-118.29866200000001,Torrance"
179,90504,33.786594,-118.29866200000001,Torrance,CA,Los Angeles,"33.786594,-118.29866200000001,Torrance"
180,90505,33.786594,-118.29866200000001,Torrance,CA,Los Angeles,"33.786594,-118.29866200000001,Torrance"
181,90506,33.786594,-118.29866200000001,Torrance,CA,Los Angeles,"33.786594,-118.29866200000001,Torrance"
182,90507,33.786594,-118.29866200000001,Torrance,CA,Los Angeles,"33.786594,-118.29866200000001,Torrance"
183,90508,33.786594,-118.29866200000001,Torrance,CA,Los Angeles,"33.786594,-118.29866200000001,Torrance"
184,90509,33.786594,-118.29866200000001,Torrance,CA,Los Angeles,"33.786594,-118.29866200000001,Torrance"
185,90510,33.786594,-118.29866200000001,Torrance,CA,Los Angeles,"33.786594,-118.29866200000001,Torrance"
213,90703,33.866914,-118.068648,Cerritos,CA,Los Angeles,"33.866914,-118.068648,Cerritos"
287,91050,33.786594,-118.29866200000001,Pasadena,CA,Los Angeles,"33.786594,-118.29866200000001,Pasadena"
288,91051,33.786594,-118.29866200000001,Pasadena,CA,Los Angeles,"33.786594,-118.29866200000001,Pasadena"
291,91101,33.786594,-118.29866200000001,Pasadena,CA,Los Angeles,"33.786594,-118.29866200000001,Pasadena"
292,91102,33.786594,-118.29866200000001,Pasadena,CA,Los Angeles,"33.786594,-118.29866200000001,Pasadena"
293,91103,33.786594,-118.29866200000001,Pasadena,CA,Los Angeles,"33.786594,-118.29866200000001,Pasadena"
294,91104,33.786594,-118.29866200000001,Pasadena,CA,Los Angeles,"33.786594,-118.29866200000001,Pasadena"
295,91105,33.786594,-118.29866200000001,Pasadena,CA,Los Angeles,"33.786594,-118.29866200000001,Pasadena"
296,91106,33.786594,-118.29866200000001,Pasadena,CA,Los Angeles,"33.786594,-118.29866200000001,Pasadena"
297,91107,33.786594,-118.29866200000001,Pasadena,CA,Los Angeles,"33.786594,-118.29866200000001,Pasadena"
299,91109,33.786594,-118.29866200000001,Pasadena,CA,Los Angeles,"33.786594,-118.29866200000001,Pasadena"
300,91110,33.786594,-118.29866200000001,Pasadena,CA,Los Angeles,"33.786594,-118.29866200000001,Pasadena"
301,91114,33.786594,-118.29866200000001,Pasadena,CA,Los Angeles,"33.786594,-118.29866200000001,Pasadena"
302,91115,33.786594,-118.29866200000001,Pasadena,CA,Los Angeles,"33.786594,-118.29866200000001,Pasadena"
303,91116,33.786594,-118.29866200000001,Pasadena,CA,Los Angeles,"33.786594,-118.29866200000001,Pasadena"
304,91117,33.786594,-118.29866200000001,Pasadena,CA,Los Angeles,"33.786594,-118.29866200000001,Pasadena"
306,91121,33.786594,-118.29866200000001,Pasadena,CA,Los Angeles,"33.786594,-118.29866200000001,Pasadena"
307,91123,33.786594,-118.29866200000001,Pasadena,CA,Los Angeles,"33.786594,-118.29866200000001,Pasadena"
308,91124,33.786594,-118.29866200000001,Pasadena,CA,Los Angeles,"33.786594,-118.29866200000001,Pasadena"
309,91125,33.786594,-118.29866200000001,Pasadena,CA,Los Angeles,"33.786594,-118.29866200000001,Pasadena"
310,91126,33.786594,-118.29866200000001,Pasadena,CA,Los Angeles,"33.786594,-118.29866200000001,Pasadena"
311,91129,33.786594,-118.29866200000001,Pasadena,CA,Los Angeles,"33.786594,-118.29866200000001,Pasadena"
312,91131,33.786594,-118.29866200000001,Pasadena,CA,Los Angeles,"33.786594,-118.29866200000001,Pasadena"
313,91175,33.786594,-118.29866200000001,Pasadena,CA,Los Angeles,"33.786594,-118.29866200000001,Pasadena"
314,91182,33.786594,-118.29866200000001,Pasadena,CA,Los Angeles,"33.786594,-118.29866200000001,Pasadena"
315,91184,33.786594,-118.29866200000001,Pasadena,CA,Los Angeles,"33.786594,-118.29866200000001,Pasadena"
316,91185,33.786594,-118.29866200000001,Pasadena,CA,Los Angeles,"33.786594,-118.29866200000001,Pasadena"
317,91186,33.786594,-118.29866200000001,Pasadena,CA,Los Angeles,"33.786594,-118.29866200000001,Pasadena"
318,91187,33.786594,-118.29866200000001,Pasadena,CA,Los Angeles,"33.786594,-118.29866200000001,Pasadena"
319,91188,33.786594,-118.29866200000001,Pasadena,CA,Los Angeles,"33.786594,-118.29866200000001,Pasadena"
320,91189,33.786594,-118.29866200000001,Pasadena,CA,Los Angeles,"33.786594,-118.29866200000001,Pasadena"
321,91191,33.786594,-118.29866200000001,Pasadena,CA,Los Angeles,"33.786594,-118.29866200000001,Pasadena"
